{
    "satellites": [
        {
            "name": "starlink368",
            "title": "Starlink-368 (G10-33) (new)",
            "tle": [
                "1 70215C 26055AE  26082.91506944 -.00632980  00000+0 -76815-3 0   821",
                "2 70215  53.1611 266.9705 0000656  52.7673 114.9222 16.07720562    14"
            ],
            "stdMag": 5,
            "noradId": "70215",
            "intDes": null,
            "tleUrl": "http://celestrak.org/NORAD/elements/supplemental/sup-gp.php?FILE=starlink&FORMAT=tle",
            "launchDate": "2026-03-19T14:20:10.000Z",
            "active": true,
            "batch": [
                {
                    "noradId": "70215",
                    "tle": [
                        "1 70215C 26055AE  26082.91506944 -.00632980  00000+0 -76815-3 0   821",
                        "2 70215  53.1611 266.9705 0000656  52.7673 114.9222 16.07720562    14"
                    ]
                },
                {
                    "noradId": "70209",
                    "tle": [
                        "1 70209C 26055Y   26082.77618056 -.00709800  00000+0 -89258-3 0   827",
                        "2 70209  53.1611 267.7038 0000452  60.0377  18.6063 16.07195755    15"
                    ]
                },
                {
                    "noradId": "70212",
                    "tle": [
                        "1 70212C 26055AB  26082.93590278 -.00669620  00000+0 -82458-3 0   824",
                        "2 70212  53.1610 266.8652 0000389  52.6809 234.0956 16.07508336    14"
                    ]
                },
                {
                    "noradId": "70214",
                    "tle": [
                        "1 70214C 26055AD  26082.97062500 -.00695160  00000+0 -85249-3 0   821",
                        "2 70214  53.1609 266.6821 0000586  51.8151  76.8453 16.07586493    14"
                    ]
                },
                {
                    "noradId": "70213",
                    "tle": [
                        "1 70213C 26055AC  26082.79493056 -.00660380  00000+0 -81904-3 0   824",
                        "2 70213  53.1611 267.6029 0000569  54.2978 134.4641 16.07390202    13"
                    ]
                },
                {
                    "noradId": "70211",
                    "tle": [
                        "1 70211C 26055AA  26082.83243056 -.00680380  00000+0 -83764-3 0   828",
                        "2 70211  53.1616 267.4069 0000457  73.9273 332.8439 16.07517218    17"
                    ]
                },
                {
                    "noradId": "70207",
                    "tle": [
                        "1 70207C 26055W   26082.97826389 -.00727090  00000+0 -95451-3 0   820",
                        "2 70207  53.1608 266.6580 0000555  49.8193 115.9467 16.06517059    17"
                    ]
                },
                {
                    "noradId": "70210",
                    "tle": [
                        "1 70210C 26055Z   26082.97062500 -.00713440  00000+0 -90604-3 0   820",
                        "2 70210  53.1606 266.6902 0000372  59.6205  65.4526 16.07040971    17"
                    ]
                },
                {
                    "noradId": "70208",
                    "tle": [
                        "1 70208C 26055X   26082.89631944 -.00684900  00000+0 -87869-3 0   829",
                        "2 70208  53.1612 267.0807 0000360  71.2992 341.9370 16.06864288    13"
                    ]
                },
                {
                    "noradId": "70205",
                    "tle": [
                        "1 70205C 26055U   26082.89006944 -.00710940  00000+0 -93537-3 0   825",
                        "2 70205  53.1612 267.1181 0000379  76.4521 298.0020 16.06473708    18"
                    ]
                },
                {
                    "noradId": "70201",
                    "tle": [
                        "1 70201C 26055Q   26082.89701389 -.00712600  00000+0 -97533-3 0   821",
                        "2 70201  53.1611 267.0894 0000389  63.3750 347.6264 16.05837201    15"
                    ]
                },
                {
                    "noradId": "70203",
                    "tle": [
                        "1 70203C 26055S   26082.79701389 -.00694070  00000+0 -92371-3 0   827",
                        "2 70203  53.1612 267.6057 0000680  58.9639 135.2806 16.06280336    10"
                    ]
                },
                {
                    "noradId": "70204",
                    "tle": [
                        "1 70204C 26055T   26082.93381944 -.00702030  00000+0 -95346-3 0   826",
                        "2 70204  53.1610 266.8966 0000635  55.0810 209.8124 16.05956715    19"
                    ]
                },
                {
                    "noradId": "70202",
                    "tle": [
                        "1 70202C 26055R   26082.93381944 -.00700460  00000+0 -93561-3 0   826",
                        "2 70202  53.1610 266.8927 0000391  69.0462 197.5933 16.06225260    17"
                    ]
                },
                {
                    "noradId": "70200",
                    "tle": [
                        "1 70200C 26055P   26082.88451389 -.00723450  00000+0 -10006-2 0   825",
                        "2 70200  53.1612 267.1562 0000343  72.2012 265.5078 16.05673069    19"
                    ]
                },
                {
                    "noradId": "70199",
                    "tle": [
                        "1 70199C 26055N   26082.85187500 -.00715390  00000+0 -99330-3 0   822",
                        "2 70199  53.1611 267.3274 0000431  77.3362  70.8146 16.05605478    11"
                    ]
                },
                {
                    "noradId": "70198",
                    "tle": [
                        "1 70198C 26055M   26082.96159722 -.00743520  00000+0 -10518-2 0   824",
                        "2 70198  53.1608 266.7591 0000466  53.9648   7.8279 16.05315685    11"
                    ]
                },
                {
                    "noradId": "70197",
                    "tle": [
                        "1 70197C 26055L   26082.96993056 -.00753230  00000+0 -10741-2 0   826",
                        "2 70197  53.1608 266.7179 0000563  61.1471  47.9883 16.05189651    13"
                    ]
                },
                {
                    "noradId": "70196",
                    "tle": [
                        "1 70196C 26055K   26082.87826389 -.00745700  00000+0 -10773-2 0   827",
                        "2 70196  53.1612 267.1978 0000374  66.6166 230.5663 16.04972252    12"
                    ]
                },
                {
                    "noradId": "70192",
                    "tle": [
                        "1 70192C 26055F   26082.90604167 -.00728550  00000+0 -10913-2 0   825",
                        "2 70192  53.1613 267.0629 0000484  69.2755  24.0577 16.04367607    18"
                    ]
                },
                {
                    "noradId": "70195",
                    "tle": [
                        "1 70195C 26055J   26082.96090278 -.00746930  00000+0 -10773-2 0   822",
                        "2 70195  53.1609 266.7668 0000500  65.8996 349.9608 16.04999397    14"
                    ]
                },
                {
                    "noradId": "70190",
                    "tle": [
                        "1 70190C 26055D   26082.90187500 -.00739960  00000+0 -11399-2 0   826",
                        "2 70190  53.1612 267.0904 0000438  82.2844 344.1887 16.03907600    16"
                    ]
                },
                {
                    "noradId": "70193",
                    "tle": [
                        "1 70193C 26055G   26082.94284722 -.00739590  00000+0 -11026-2 0   823",
                        "2 70193  53.1610 266.8704 0000388  72.8263 234.0813 16.04452139    15"
                    ]
                },
                {
                    "noradId": "70188",
                    "tle": [
                        "1 70188C 26055B   26082.96576389 -.00758670  00000+0 -11853-2 0   820",
                        "2 70188  53.1609 266.7614 0000429  78.5522 356.1135 16.03683140    13"
                    ]
                },
                {
                    "noradId": "70189",
                    "tle": [
                        "1 70189C 26055C   26082.92062500 -.00716480  00000+0 -10970-2 0   824",
                        "2 70189  53.1612 266.9912 0000489  72.4017 103.2620 16.03998145    13"
                    ]
                },
                {
                    "noradId": "70191",
                    "tle": [
                        "1 70191C 26055E   26082.95187500 -.00748110  00000+0 -11355-2 0   821",
                        "2 70191  53.1609 266.8274 0000475  61.8798 295.3842 16.04157942    17"
                    ]
                },
                {
                    "noradId": "70194",
                    "tle": [
                        "1 70194C 26055H   26082.86090278 -.00711600  00000+0 -10443-2 0   820",
                        "2 70194  53.1613 267.2935 0000508  80.7421 113.4193 16.04697824    11"
                    ]
                },
                {
                    "noradId": "70187",
                    "tle": [
                        "1 70187C 26055A   26082.86506944 -.00721810  00000+0 -11234-2 0   827",
                        "2 70187  53.1613 267.2846 0000566  92.1795 119.8798 16.03727588    10"
                    ]
                }
            ]
        }
    ],
    "config": {}
}